{"fetched_at":"2026-03-29T16:36:15Z","count":15609,"tles":[{"name":"STARLINK-32317","line1":"1 60918U 24154R   26087.71329984 -.00000198  00000+0  54530-5 0  9996","line2":"2 60918  53.1609 195.7566 0001324  66.8473 293.2667 15.30190456 89245","category":"Starlink"}]}